31P/Schwassmann-Wachmann,e,4.5496,114.1119,17.8325,4.232697,0.1131822,0.19304927,211.9725,08/19.0/2024,2000,g  5.0,8.0
# From MPEC 2024-L77
32P/ComasSola,e,9.9207,54.5298,54.6732,4.551948,0.1014865,0.55521791,12.2177,08/19.0/2024,2000,g  6.5,8.0
# From MPEC 2023-J29
33P/Daniel,e,22.2957,66.2833,20.3156,4.095679,0.1189091,0.45245844,350.0016,08/19.0/2024,2000,g 10.0,12.0
# From  9, 314
34D/Gale,e,10.5827,57.8679,218.0401,5.014676,0.0877687,0.75788354,295.3655,08/19.0/2024,2000,g  9.0,4.0
# From  15, 452
35P/Herschel-Rigollet,e,64.918,356.434,29.108,28.5385,0.006465,0.9744104,0.000,03/27.8574/2092,2000,g  9.0,4.0
# From MPEC 2023-RF3
36P/Whipple,e,9.9491,181.8383,201.1787,4.139913,0.1170085,0.26857086,180.0421,08/19.0/2024,2000,g  8.5,6.0
# From MPEC 2024-Q20
37P/Forbes,e,8.9474,314.5502,330.0674,3.462952,0.1529447,0.53281952,351.8551,08/19.0/2024,2000,g 10.5,4.8
# From MPEC 2018-S50
38P/Stephan-Oterma,e,18.4004,77.8764,359.5414,11.25435,0.0261050,0.85981594,54.9681,08/19.0/2024,2000,g  3.5,12.0
# From MPEC 2024-AF0
39P/Oterma,e,1.6355,290.9227,110.7491,7.047035,0.0526859,0.18794056,19.6718,08/19.0/2024,2000,g  7.0,6.0
# From MPC100283
40P/Vaisala,e,11.6080,129.3821,51.5214,4.967593,0.0890195,0.63337321,320.0138,08/19.0/2024,2000,g  5.5,12.0
# From MPEC 2023-SQ0
41P/Tuttle-Giacobini-Kresak,e,9.2163,140.9725,62.2357,3.088216,0.1816112,0.65954439,128.1295,08/19.0/2024,2000,g 10.0,16.0
# From MPC 94283
42P/Neujmin,e,3.9887,150.1582,147.1730,4.877061,0.0915096,0.58405232,312.9633,08/19.0/2024,2000,g 13.0,6.0
# From MPEC 2024-Q20
43P/Wolf-Harrington,e,9.3343,243.9969,223.9057,4.328590,0.1094421,0.43574379,321.5756,08/19.0/2024,2000,g  8.0,6.0
# From MPEC 2024-F34
44P/Reinmuth,e,5.8964,286.4251,58.0158,3.687711,0.1391774,0.42695804,118.2165,08/19.0/2024,2000,g  8.3,6.0
# From MPEC 2022-O01
45P/Honda-Mrkos-Pajdusakova,e,4.3239,87.6882,327.9400,3.056620,0.1844344,0.81773173,155.8082,08/19.0/2024,2000,g 13.5,8.0
# From MPEC 2024-F91
46P/Wirtanen,e,11.7498,82.1619,356.3193,3.091086,0.1813583,0.65875483,16.6673,08/19.0/2024,2000,g 14.0,6.0
# From MPEC 2024-PC5
47P/Ashbrook-Jackson,e,13.0373,356.8945,357.8725,4.119407,0.1178832,0.31846052,308.7410,08/19.0/2024,2000,g  1.0,11.2
# From MPEC 2024-P23
48P/Johnson,e,12.2011,110.0646,216.7728,3.500360,0.1504995,0.42676369,330.5585,08/19.0/2024,2000,g 10.0,6.0
# From MPEC 2024-Q20
49P/Arend-Rigaux,e,19.0588,118.7947,332.9404,3.568921,0.1461836,0.59894280,325.6995,08/19.0/2024,2000,g 11.3,4.4
# From MPEC 2024-BE0
50P/Arend,e,19.0976,355.1588,49.3411,4.089932,0.1191598,0.53000262,11.7077,08/19.0/2024,2000,g  9.5,6.0
# From MPEC 2023-J29
51P/Harrington,e,5.4264,83.6594,269.2421,3.705380,0.1381831,0.54303362,95.0637,08/19.0/2024,2000,g 10.0,8.0
# From NK 3014
51P-A/Harrington,e,5.4265,269.2337,83.6483,3.706644,0.1381124,0.54322385,94.6589,08/19.0/2024,2000,g 10.0,8.0
# From MPEC 2023-J29
51P-D/Harrington,e,5.4269,83.6476,269.2602,3.705734,0.1381633,0.54316347,94.9916,08/19.0/2024,2000,g 16.0,8.0
# From MPEC 2023-XP6
52P/Harrington-Abell,e,10.2340,336.7798,139.5779,3.862516,0.1298371,0.54084822,136.1094,08/19.0/2024,2000,g 13.5,6.0
# From MPEC 2023-TM6
53P/VanBiesbroeck,e,6.6035,148.8482,134.3958,5.437017,0.0777433,0.54960555,236.3187,08/19.0/2024,2000,g  7.7,4.8
# From MPEC 2024-Q20
54P/deVico-Swift-NEAT,e,6.0642,358.7981,1.9807,3.785687,0.1338095,0.42629393,357.8681,08/19.0/2024,2000,g 10.0,6.0
# From MPC 31070
55P/Tempel-Tuttle,e,162.4963,235.4177,172.4696,10.34485,0.0296222,0.90563041,286.9192,08/19.0/2024,2000,g  9.0,4.0
# From MPEC 2023-TM6
56P/Slaughter-Burnham,e,8.1556,345.9221,44.1720,5.063942,0.0864910,0.50857533,254.7377,08/19.0/2024,2000,g  8.5,6.0
# From MPEC 2024-DC6
57P/duToit-Neujmin-Delporte,e,2.8525,188.7698,115.0725,3.441907,0.1543496,0.50083583,160.1151,08/19.0/2024,2000,g 12.5,6.0
# From MPEC 2024-A43
58P/Jackson-Neujmin,e,13.0954,159.0570,200.5726,4.090081,0.1191534,0.66209609,184.0380,08/19.0/2024,2000,g 15.5,6.0
# From MPEC 2023-A50
59P/Kearns-Kwee,e,9.3521,312.7407,127.6163,4.480488,0.1039241,0.47691075,224.4542,08/19.0/2024,2000,g  7.0,6.0
# From MPEC 2021-F20
60P/Tsuchinshan,e,3.5812,267.4305,216.9392,3.528195,0.1487220,0.53374130,310.0729,08/19.0/2024,2000,g 11.5,6.0
# From MPEC 2024-JU4
61P/Shajn-Schaldach,e,5.9985,162.9640,221.6783,3.689528,0.1390746,0.42342582,92.5297,08/19.0/2024,2000,g  6.0,10.0
# From MPEC 2024-O39
62P/Tsuchinshan,e,4.7375,68.6663,47.3132,3.369984,0.1593171,0.62462273,37.8962,08/19.0/2024,2000,g  8.0,10.0
# From MPC 84320
63P/Wild,e,19.6422,357.8481,168.8488,5.638081,0.0736219,0.65050665,309.4530,08/19.0/2024,2000,g 10.5,6.0
# From MPEC 2024-A43
64P/Swift-Gehrels,e,8.9519,299.8044,97.2973,4.452213,0.1049156,0.68867645,221.5637,08/19.0/2024,2000,g  9.5,12.0
# From MPEC 2024-Q20
65P/Gunn,e,9.1759,61.9766,213.7267,3.891518,0.1283883,0.24812541,321.2646,08/19.0/2024,2000,g  5.0,6.0
# From MPEC 2021-F20
66P/duToit,e,18.6423,21.8080,257.4425,6.070737,0.0658934,0.78510940,150.7665,08/19.0/2024,2000,g 15.0,4.0
# From MPEC 2024-C04
67P/Churyumov-Gerasimenko,e,3.8703,36.3262,22.1838,3.458280,0.1532547,0.64998530,156.3944,08/19.0/2024,2000,g 11.0,4.0
# From MPEC 2023-HD1
68P/Klemola,e,11.1048,175.0752,153.2548,4.962395,0.0891594,0.63620454,155.7092,08/19.0/2024,2000,g 12.6,4.0
# From MPEC 2024-C04
69P/Taylor,e,22.0598,104.8062,343.4462,3.881924,0.1288646,0.41457134,254.9391,08/19.0/2024,2000,g  9.5,12.0
# From MPEC 2023-VM5
70P/Kojima,e,6.6013,119.2371,1.7771,3.676047,0.1398404,0.45450771,142.5622,08/19.0/2024,2000,g 11.0,6.0
# From MPEC 2024-A43
71P/Clark,e,9.4321,59.3872,209.5527,3.152736,0.1760648,0.49335073,100.9774,08/19.0/2024,2000,g  9.8,6.0
# From MPEC 2023-VM5
72P/Denning-Fujikawa,e,10.9477,26.7044,346.7414,4.307256,0.1102562,0.81854723,47.4399,08/19.0/2024,2000,g 17.5,10.0
# From MPEC 2023-RF3
73P/Schwassmann-Wachmann,e,11.3263,69.5214,199.1313,3.078121,0.1825053,0.69319401,131.4690,08/19.0/2024,2000,g 11.5,6.0
# From NK 1613
73P-B/Schwassmann-Wachmann B,e,11.1017,198.5952,70.0797,3.082607,0.1821071,0.69178598,130.6303,08/19.0/2024,2000,g  9.0,4.0
# From NK 2710
73P-C/Schwassmann-Wachmann,e,11.1016,198.6620,70.0441,3.081379,0.1822160,0.69145436,131.4597,08/19.0/2024,2000,g  9.0,4.0
# From NK 934
73P-E/Schwassmann-Wachmann,e,11.0967,198.5019,70.1496,3.086190,0.1817900,0.69243914,128.7826,08/19.0/2024,2000,g  9.0,4.0
# From MPC 56796
73P-G/Schwassmann-Wachmann,e,11.388,69.909,198.772,3.06230,0.183922,0.6933024,359.982,06/08.0/2006,2000,g  9.0,4.0
# From MPC 56796
73P-H/Schwassmann-Wachmann,e,11.389,69.903,198.778,3.06223,0.183927,0.6933024,359.948,06/08.0/2006,2000,g  9.0,4.0
# From MPC 56796
73P-J/Schwassmann-Wachmann,e,11.386,69.983,198.673,3.06380,0.183786,0.6933024,359.974,06/08.0/2006,2000,g  9.0,4.0
# From MPC 56797
73P-K/Schwassmann-Wachmann,e,11.390,69.881,198.809,3.06176,0.183970,0.6933024,359.959,06/08.0/2006,2000,g  9.0,4.0
# From MPC 56797
73P-L/Schwassmann-Wachmann,e,11.388,69.911,198.772,3.06211,0.183938,0.6933024,359.937,06/08.0/2006,2000,g  9.0,4.0
# From MPC 56797
73P-M/Schwassmann-Wachmann,e,11.389,69.895,198.787,3.06205,0.183944,0.6933024,359.952,06/08.0/2006,2000,g  9.0,4.0
# From MPC 56797
73P-N/Schwassmann-Wachmann,e,11.389,69.909,198.754,3.06231,0.183921,0.6933024,359.952,06/08.0/2006,2000,g  9.0,4.0
# From MPC 56797
73P-P/Schwassmann-Wachmann,e,11.390,69.900,198.783,3.06222,0.183929,0.6933024,359.839,06/07.0/2006,2000,g  9.0,4.0
# From MPC 56797
73P-Q/Schwassmann-Wachmann,e,11.387,69.944,198.717,3.06298,0.183860,0.6933024,359.867,06/07.0/2006,2000,g  9.0,4.0
# From MPC 56797
73P-R/Schwassmann-Wachmann,e,11.388,69.904,198.776,3.06224,0.183927,0.6933024,359.966,06/08.0/2006,2000,g  9.0,4.0
# From MPC 56797
73P-S/Schwassmann-Wachmann,e,11.127,77.364,188.229,3.22719,0.170007,0.6933024,359.883,06/08.0/2006,2000,g  9.0,4.0
# From MPEC 2023-J29
73P-T/Schwassmann-Wachmann,e,11.3294,69.5273,199.1130,3.076916,0.1826126,0.69305337,131.7711,08/19.0/2024,2000,g  9.0,4.0
# From MPC 56797
73P-U/Schwassmann-Wachmann,e,11.384,69.994,198.659,3.06366,0.183799,0.6933024,359.997,06/09.0/2006,2000,g  9.0,4.0
# From MPC 56797
73P-V/Schwassmann-Wachmann,e,11.651,65.236,204.943,2.97417,0.192156,0.6933024,359.908,06/08.0/2006,2000,g  9.0,4.0
# From MPC 56797
73P-W/Schwassmann-Wachmann,e,11.390,69.884,198.803,3.06185,0.183962,0.6933024,359.908,06/08.0/2006,2000,g  9.0,4.0
# From MPC 56798
73P-X/Schwassmann-Wachmann,e,11.388,69.900,198.778,3.06207,0.183942,0.6933024,359.896,06/08.0/2006,2000,g  9.0,4.0
# From MPC 56798
73P-Y/Schwassmann-Wachmann,e,11.391,69.879,198.785,3.06200,0.183948,0.6933024,359.858,06/08.0/2006,2000,g  9.0,4.0
# From MPC 56798
73P-Z/Schwassmann-Wachmann,e,11.349,70.493,198.017,3.07155,0.183091,0.6933024,359.943,06/08.0/2006,2000,g  9.0,4.0
# From MPC 56798
73P-AA/Schwassmann-Wachmann,e,11.390,69.883,198.804,3.06182,0.183965,0.6933024,359.984,06/09.0/2006,2000,g  9.0,4.0
# From MPC 56798
73P-AB/Schwassmann-Wachmann,e,11.390,69.888,198.792,3.06183,0.183964,0.6933024,359.872,06/08.0/2006,2000,g  9.0,4.0
# From MPC 56798
73P-AC/Schwassmann-Wachmann,e,11.387,69.914,198.766,3.06223,0.183927,0.6933024,359.872,06/08.0/2006,2000,g  9.0,4.0
# From MPC 56798
73P-AD/Schwassmann-Wachmann,e,11.355,70.416,198.119,3.07035,0.183198,0.6933024,359.873,06/08.0/2006,2000,g  9.0,4.0
# From MPC 56798
73P-AE/Schwassmann-Wachmann,e,11.390,69.891,198.790,3.06196,0.183952,0.6933024,359.935,06/08.0/2006,2000,g  9.0,4.0
# From MPC 56798
73P-AF/Schwassmann-Wachmann,e,11.356,70.302,198.217,3.06961,0.183265,0.6933024,359.846,06/06.0/2006,2000,g  9.0,4.0
# From MPC 56798
73P-AG/Schwassmann-Wachmann,e,11.386,69.932,198.724,3.06233,0.183919,0.6933024,359.997,06/09.0/2006,2000,g  9.0,4.0
# From MPC 56798
73P-AH/Schwassmann-Wachmann,e,11.331,70.695,197.755,3.07445,0.182832,0.6933024,359.885,06/08.0/2006,2000,g  9.0,4.0
# From MPC 56798
73P-AI/Schwassmann-Wachmann,e,11.392,69.885,198.806,3.06205,0.183944,0.6933024,359.864,06/08.0/2006,2000,g  9.0,4.0
# From MPC 56799
